FENGYUN 1C DEB          
1 36713U 99025EAK 17345.51988540  .00001051  00000-0  13708-3 0  9994
2 36713  98.3776  87.8217 0227163  96.1242 266.5893 14.66413011535087
